sat00511
1 00511U 62049D   20046.52034613  .00000033  00000-0  28511-4 0  9991
2 00511  80.4310 325.7883 0031520 166.0085   7.8474 13.68223254863629
